{
    "links": {
        "self": "http://www.neowsapp.com/rest/v1/neo/3715508?api_key=iIulBulltgU6a56xZRHN4H3l9WmuAYTsLGpBGhQ2"
    },
    "id": "3715508",
    "neo_reference_id": "3715508",
    "name": "(2015 GZ)",
    "designation": "2015 GZ",
    "nasa_jpl_url": "http://ssd.jpl.nasa.gov/sbdb.cgi?sstr=3715508",
    "absolute_magnitude_h": 26.1,
    "estimated_diameter": {
        "kilometers": {
            "estimated_diameter_min": 0.0160160338,
            "estimated_diameter_max": 0.0358129403
        },
        "meters": {
            "estimated_diameter_min": 16.0160337979,
            "estimated_diameter_max": 35.8129403019
        },
        "miles": {
            "estimated_diameter_min": 0.0099518989,
            "estimated_diameter_max": 0.0222531225
        },
        "feet": {
            "estimated_diameter_min": 52.5460443254,
            "estimated_diameter_max": 117.4965270602
        }
    },
    "is_potentially_hazardous_asteroid": false,
    "close_approach_data": [
        {
            "close_approach_date": "2015-04-07",
            "close_approach_date_full": "2015-Apr-07 23:33",
            "epoch_date_close_approach": 1428449580000,
            "relative_velocity": {
                "kilometers_per_second": "18.479116251",
                "kilometers_per_hour": "66524.8185035507",
                "miles_per_hour": "41335.9351418313"
            },
            "miss_distance": {
                "astronomical": "0.0223295617",
                "lunar": "8.6861995013",
                "kilometers": "3340454.868353579",
                "miles": "2075662.4054502302"
            },
            "orbiting_body": "Earth"
        }
    ],
    "orbital_data": {
        "orbit_id": "6",
        "orbit_determination_date": "2017-04-06 08:34:32",
        "first_observation_date": "2015-04-11",
        "last_observation_date": "2015-04-15",
        "data_arc_in_days": 4,
        "observations_used": 37,
        "orbit_uncertainty": "8",
        "minimum_orbit_intersection": ".0177989",
        "jupiter_tisserand_invariant": "2.849",
        "epoch_osculation": "2457124.5",
        "eccentricity": ".7201380964887688",
        "semi_major_axis": "2.797247278472326",
        "inclination": "13.51090645568549",
        "ascending_node_longitude": "20.37514965665215",
        "orbital_period": "1708.81369854415",
        "perihelion_distance": ".7828429479448761",
        "perihelion_argument": "113.8307732677288",
        "aphelion_distance": "4.811651608999775",
        "perihelion_time": "2457080.329890035624",
        "mean_anomaly": "9.305426098071818",
        "mean_motion": ".2106724684538212",
        "equinox": "J2000",
        "orbit_class": {
            "orbit_class_type": "APO",
            "orbit_class_description": "Near-Earth asteroid orbits which cross the Earth’s orbit similar to that of 1862 Apollo",
            "orbit_class_range": "a (semi-major axis) > 1.0 AU; q (perihelion) < 1.017 AU"
        }
    },
    "is_sentry_object": false
}